{"type":"Topology","arcs":[[[9725,7699],[45,9]],[[9770,7708],[-14,-130],[91,-30],[18,-11]],[[9865,7537],[56,-41],[-2,-188],[-13,-72],[-1,-113],[-21,-30],[-41,22],[-29,-21],[-10,-96],[40,-222],[-15,-43],[-43,9],[-21,-64],[-23,-17],[-33,21],[-59,38],[-6,-48],[-35,-13],[-35,319],[-54,85],[-11,132],[23,12],[-54,201]],[[9478,7408],[23,82],[-11,145]],[[9490,7635],[49,2],[6,-42],[38,10],[89,147],[15,-41],[38,-12]],[[4386,2777],[61,28],[-13,64],[152,-41],[96,130],[69,-21],[21,33]],[[4772,2970],[30,-127],[-17,-58],[-20,-124],[-44,-195],[-51,-69],[-66,-130]],[[4604,2267],[-60,-33],[48,-16]],[[4592,2218],[-19,-96],[21,-87],[15,-192]],[[4609,1843],[-41,5],[-9,-30],[49,-44]],[[4608,1774],[4,-238],[-152,15],[-80,-38],[-16,-41],[10,-37],[-53,-88],[-85,-166],[64,-75],[107,6],[-13,-29],[-169,5],[-192,-71],[-83,-92],[-11,-167],[-68,-73],[-69,-75],[-80,-10],[-14,-28],[-43,8],[-136,87]],[[3529,667],[67,124],[-27,85],[22,47],[-42,57],[21,26],[31,100],[23,53],[24,46],[-33,34],[-59,4],[31,82],[9,141],[7,48],[-42,55],[-35,-19],[-16,-23],[-27,-19],[-35,18],[-23,35],[29,193],[-98,69],[38,61],[-18,70],[-104,-17],[41,69],[-123,74],[72,63]],[[3262,2143],[37,14],[19,-36],[113,-12],[24,88],[204,-12],[25,77],[72,3],[39,70],[-12,19],[-108,38],[57,54],[-6,132],[54,2],[36,84],[14,2],[143,-48]],[[3973,2618],[71,-58],[75,95],[7,64],[107,46],[106,-33],[26,60],[21,-15]],[[3405,6461],[0,-41],[-63,-58],[16,-22],[-15,-42],[-53,3],[-42,-50],[-84,1],[-28,128],[-43,-1],[-148,9],[-156,9],[-62,68],[-109,21],[-106,49],[8,81],[-36,51],[-60,-42],[-53,8]],[[2371,6633],[-20,28],[11,86],[-27,38],[6,25],[47,-16],[10,53],[-37,-10],[-24,57],[36,-12],[44,53],[46,-3],[31,119],[-26,-5],[-29,71]],[[2439,7117],[26,23],[47,-12],[90,59],[-81,44],[17,44],[79,53],[29,4],[37,93],[-15,48],[28,72],[-26,75],[-60,14],[39,79],[-62,26],[42,110],[33,-44],[41,26],[-65,90],[30,13],[53,-37],[60,84],[63,-8],[-66,-118],[143,-20],[93,26],[53,-96],[-8,-44],[-67,-20],[33,-66],[-24,-45],[33,-37],[-53,-40],[-70,26],[-24,-47],[90,-75],[40,53],[57,13],[41,74],[33,9],[-3,47],[37,6],[140,0],[29,27],[62,-67],[31,6],[16,35],[-31,98],[-10,43],[63,-32],[36,42],[-14,66],[-90,43],[57,27],[-35,41],[6,35],[117,30],[54,-13],[32,17],[7,45],[-17,82],[-21,9],[-36,-49],[-55,8],[-54,-23],[-138,54],[-30,52],[12,136],[119,85],[105,79],[101,66],[175,81],[32,47],[73,8],[9,52],[43,16]],[[3970,8765],[53,16],[73,-46],[93,2],[89,-42],[-7,-40],[57,-61],[-77,-213],[-21,-18],[-48,-84],[19,-44],[-141,-21],[-44,-60],[20,-99],[22,-37],[-29,-10],[-72,-113],[34,-78],[-3,-93],[39,-33],[-15,-20],[23,-28],[45,56],[119,-93],[73,104],[-3,11],[-27,8],[15,38],[-28,41],[-52,-18],[8,113],[-54,43],[3,50],[-32,62],[-18,27],[57,47],[45,-13],[-16,46],[60,25],[22,-10],[-24,-47],[32,-18],[-32,-81],[72,28],[26,-49],[76,17],[-17,76],[61,-30],[-12,-65],[34,-12],[30,41],[106,-32],[6,41],[98,69],[83,16],[-2,-45],[37,-18],[10,-30],[-65,-66],[54,20],[30,-41],[45,50],[48,-11],[50,53],[6,-113],[34,17],[68,-27],[57,65],[5,49],[45,-15],[58,25],[50,-55],[88,-32],[20,-63],[59,-12],[48,-11],[32,-81],[48,-6],[0,26],[41,10],[58,9],[40,-24],[-12,-208],[-31,-16],[58,-73]],[[5770,7511],[-46,-18],[-77,-59],[-114,30],[-49,-16],[-63,24],[-44,-28],[-56,51],[-25,-17],[37,-72],[-33,-25],[-1,-66],[120,9],[27,-52],[84,-44],[-30,-92],[-71,-10],[3,-42],[-68,-48],[-18,-86],[-1,-3],[-42,-58],[-57,-21],[-111,1],[-32,-24],[3,-63],[-29,-23],[-16,-79],[-38,22],[-24,-120],[-51,-75],[9,-83],[-30,-61]],[[4927,6363],[-94,47],[-61,77],[-137,-41],[-70,35],[-79,-27],[-11,24],[-6,34],[-102,19],[-4,-31],[-121,-25],[-6,-39],[-183,-2],[-6,33],[-30,8],[-180,-90],[-155,-4],[-13,78],[47,-11],[-38,106],[-78,-5],[-27,-30],[-58,10],[-110,-68]],[[4927,6363],[-87,-103],[9,-74],[33,3],[6,-49],[7,-65],[-24,-41],[38,2],[4,-110],[-91,-39],[15,-47],[44,-16],[-30,-119],[80,-54],[87,-80],[-17,-68],[-39,-34],[-55,10],[-13,38],[-38,-26],[-58,-84],[-24,-88],[30,-42],[-29,-56]],[[4775,5221],[-61,-17],[-81,64],[10,91],[-31,29],[27,25],[19,105],[-67,79],[-24,13],[-107,-47],[-86,40],[-24,-59],[-100,40],[8,46],[-45,47],[-161,22],[-49,43],[23,-57],[-35,-39],[13,-92],[-38,-23],[-8,-49],[-7,-34],[-90,45],[-32,-16],[-26,-101],[18,-72],[42,-29],[-86,-77],[3,-48],[-55,-3],[-18,-112]],[[3707,5035],[-34,-14],[-20,57],[-59,14],[-78,-119],[-45,16],[-12,-119],[-70,-7],[19,-32],[-41,-63],[-63,34],[-38,-51],[-37,-20],[19,-123],[-120,9],[-57,-6],[-14,35],[-32,-13],[-71,46],[-23,-41],[12,-35],[20,-13],[4,-129],[-127,-10],[-62,-49],[-37,47],[-73,-39],[6,-39],[-87,-25],[-49,-70],[-11,35],[-90,-35],[1,-100],[64,-34],[0,-44],[-42,-30],[36,-18],[-47,-120],[-53,8],[-36,-57]],[[2360,3881],[-50,-17],[-20,57],[-100,-6]],[[2190,3915],[-37,79],[-31,12],[-64,259],[-23,256],[-96,378],[-28,62],[-1,52],[23,10],[-45,39],[8,81],[-39,141],[-20,175],[5,18],[-56,232],[47,129]],[[1833,5838],[39,42],[35,-8]],[[1907,5872],[1,-36],[96,-3]],[[2004,5833],[15,1],[20,38],[46,-2],[22,166],[-26,17],[27,42],[70,-68],[36,0],[68,70],[9,50],[-21,41],[-15,28],[0,1],[-17,4],[-55,64],[58,8],[3,42],[47,14],[41,63],[108,23],[-18,28],[-115,-18],[-58,0],[-8,54],[26,30],[-25,56],[48,14],[81,34]],[[5949,6382],[-30,-104],[-216,7],[-1,-29],[-70,-115],[-48,21],[15,-105],[-17,-31],[41,-56],[-15,-165],[125,-29],[-8,-69],[-40,-24],[-25,45],[-34,13],[-39,-32],[-30,61],[-98,32],[-29,25],[-27,-24],[-3,-65],[77,-49],[-14,-123],[28,4],[10,-39],[25,0],[6,-134],[16,-89],[-27,-7],[-34,-72],[-75,-33],[5,-40],[-63,-94],[-87,-50],[-52,-185]],[[5215,4827],[-91,18],[-31,-27]],[[5093,4818],[-27,-1],[-15,162],[-87,2],[-47,155],[-71,46],[-33,-8],[-38,47]],[[5770,7511],[53,-39],[57,0],[45,22],[48,78]],[[5973,7572],[40,-7],[55,-97],[53,-19],[27,-92],[64,-18],[30,29],[-21,-108],[44,-23],[-14,-71],[55,-84],[77,0],[-32,-90],[-110,-107]],[[6241,6885],[-1,-69],[-82,-33],[-68,-40],[-35,-69],[21,-96],[-51,-56],[10,-23],[-41,-11],[-18,-52],[22,-69],[-49,15]],[[1833,5838],[-13,49],[34,54]],[[1854,5941],[23,41]],[[1877,5982],[-12,126],[-41,137],[-51,16],[-9,95],[54,69],[-49,46],[35,28],[-62,39],[32,33],[-45,59],[23,103],[117,15],[32,34],[-169,13],[-22,-28],[-33,25],[-52,-140],[-19,-107],[45,-55],[-79,-141],[2,-45],[-171,-88],[-185,-88],[-81,-23]],[[1137,6105],[-31,0]],[[1106,6105],[-37,-23],[-230,132],[-101,103],[-240,263],[10,26],[-17,-22],[-152,172],[16,90],[62,-40],[6,-59],[225,90],[87,54],[59,5],[107,153],[20,-26],[19,39],[75,80],[12,32],[-160,11],[-90,-129],[-170,-54],[-91,7],[-112,27],[-195,129],[-40,48],[7,33],[-58,29],[6,28],[-35,5],[-7,36],[-66,10],[-16,33],[28,8],[15,78],[51,40],[162,2],[4,142],[33,-25],[39,28],[22,-35],[232,31],[54,-54],[115,0],[33,54],[182,56],[-1,-74],[92,-14],[95,59],[21,35],[-40,4],[-5,66],[49,35]],[[1181,7823],[30,-11],[39,-15],[302,42],[42,-40],[67,5],[65,-94],[7,37],[65,-17],[17,-42],[90,-3],[17,53],[34,7],[-4,-44],[29,-18],[-33,-70],[69,-84],[64,17],[-11,-60],[-4,-39],[61,-91],[19,21],[33,-15],[-11,-75],[79,-10],[24,-40],[27,20],[9,-18],[61,-32],[-4,-39],[47,3],[28,-54]],[[2004,5833],[-30,35],[13,39],[-92,3],[12,-38]],[[1669,6566],[-25,74],[32,27],[25,-45],[-32,-56]],[[7357,6311],[-2,-53],[49,-102],[-4,-30],[-64,-24],[86,15],[13,-24],[-105,-79],[-21,-32],[16,-55],[-38,-31],[-57,-36],[-65,-87],[-271,-104],[-198,-121],[-160,-170],[-25,18]],[[6511,5396],[-109,-74],[-41,-71],[-90,-13],[-21,26],[-57,-1],[-38,89],[-15,-47],[-36,82],[-72,-28],[-8,-34],[-44,27],[-12,-19],[37,-44],[-81,-53],[-27,14],[-53,-77],[30,-90],[-42,-18],[-64,39],[-13,-48],[-73,-28],[7,39],[-47,71],[-23,-19],[-26,-28],[-16,-164],[-27,-23],[-86,33],[-20,-24],[-143,-83],[-86,-3]],[[6241,6885],[109,-81],[306,65],[-17,-161],[83,-50],[62,68],[112,-47],[84,-32],[44,58],[4,135],[-22,26],[41,31],[114,-90],[54,-1],[91,-57]],[[7306,6749],[43,-52],[75,-26],[-11,-55],[39,-21],[3,26],[53,18],[16,-71],[62,-15],[17,-67]],[[7603,6486],[-30,-31],[-102,-15],[-114,-129]],[[6511,5396],[25,-20],[-250,-332],[-182,-102],[-57,-57],[-140,-170],[-243,-136],[-115,-137],[0,-26],[44,-9],[-18,-130],[-235,-108],[-64,16],[-113,-30],[-100,-229],[-70,-21],[-22,70],[-140,-30],[-65,-72],[-51,-116],[-32,-156],[61,-185],[-26,-156],[54,-290]],[[3973,2618],[9,44],[84,50],[47,131],[-87,38],[14,99],[-80,-9],[-28,96],[-4,33],[-45,4],[-12,38],[-202,-121],[-9,70],[-99,12],[-45,-55],[-34,36],[25,46],[-43,43],[6,28],[-21,32],[43,13],[9,-59],[116,-14],[30,-54],[14,18],[-16,99],[43,-8],[-10,59],[-133,20],[-9,-49],[-44,5],[-47,49],[7,62],[-54,49],[40,160],[-42,9],[16,46],[73,-35],[50,8],[17,47],[-2,66],[-35,16],[-12,47],[0,87],[20,11],[-22,77],[87,56],[104,-16]],[[3692,4002],[223,-38],[36,7],[29,50],[3,16],[136,33],[54,-33],[72,50],[-8,26],[50,26],[72,-7],[-2,57],[19,91],[165,56],[45,14],[61,-39],[49,79],[-7,68],[52,21],[46,-20],[6,-42],[98,-48],[12,66],[-93,25],[85,77],[116,-36],[25,65],[91,5],[7,41],[33,-3],[14,40],[-114,48],[-43,52],[-9,42],[34,20],[33,-21],[11,28]],[[3707,5035],[19,-8],[-21,-96],[43,-37],[-80,-121],[-3,-48],[94,-31],[-67,-36],[-53,-91],[-6,-28],[53,-50],[-12,-39],[-3,-30],[-3,-117],[-14,-44],[-69,-19],[18,-28],[120,-29],[-36,-53],[5,-128]],[[3262,2143],[-2,37],[-117,44],[0,53],[-70,-17],[-204,153],[-19,53],[19,38],[-214,114]],[[2655,2618],[-36,136],[-77,373],[-125,347],[-57,29],[-12,50]],[[2348,3553],[45,11],[37,50],[8,64],[-22,24],[24,55],[-28,54],[11,14],[-16,63],[-47,-7]],[[2348,3553],[-80,198],[20,35],[-66,27],[-32,102]],[[3529,667],[-163,211],[-53,55],[-27,96],[-62,158],[-16,134],[-44,171],[18,5],[-20,-4],[-80,219],[-52,191],[-107,253],[-152,169],[-116,293]],[[7854,6512],[-37,6],[29,67],[24,-8],[-16,-65]],[[8203,6558],[31,-56],[-22,-18],[-9,74]],[[8219,6710],[5,-78],[-24,-20],[-96,22],[0,27],[-90,-71],[-56,19],[-48,-74],[-3,-75],[-45,174],[29,65],[-54,69],[-33,-7],[74,-61],[-156,-177],[-119,-37]],[[7306,6749],[46,80],[-32,11],[1,66],[-42,0],[-39,60],[-55,34],[32,88],[-102,2],[-77,64],[-63,10],[-25,44],[15,71],[10,23],[108,33],[7,-39],[52,-25],[69,98],[124,27],[0,59],[45,21],[66,-30],[82,39],[-24,54],[81,-19],[75,79],[3,40],[64,56],[-3,88],[38,-8],[7,68],[-27,10],[20,48],[25,52],[-63,50],[-6,71],[-27,3]],[[7691,8077],[21,3],[21,-10],[-19,76],[39,36],[36,18],[42,-24],[-6,95],[-88,83],[9,65],[169,127],[-16,56],[-51,39]],[[7848,8641],[30,98],[-76,147],[18,48]],[[7820,8934],[45,-48],[50,10],[57,-26],[42,45],[74,-16]],[[8088,8899],[56,-13],[1,-63],[21,13],[66,-67],[65,-15],[47,21],[187,-69]],[[8531,8706],[-6,-124],[3,-13],[-56,-72],[11,-21]],[[8483,8476],[-37,25],[6,-72],[-118,-23],[-76,56],[-23,110],[-45,25],[-28,-30],[30,-13],[-24,-29],[-65,20],[-133,102],[-8,36],[-26,-65],[59,-15],[12,-42],[-132,-94],[-31,-140],[139,-72],[-3,-30],[79,-51],[64,19],[11,-69],[58,-40],[-30,-41],[-186,9],[-16,-101],[-46,-35],[-20,31],[-34,-20],[13,-23],[-57,-75],[41,-78],[167,-89],[49,8],[23,-31],[-16,-69],[12,-81],[-49,-22],[-17,-65],[78,-116],[-21,-94],[91,-11],[-33,-104],[44,-54],[-22,-38],[56,-275]],[[8109,6597],[13,-87],[-25,-3],[-21,39],[10,67],[23,-16]],[[8175,6617],[2,-64],[-50,69],[48,-5]],[[1854,5941],[23,41]],[[1137,6105],[-31,0]],[[4604,2267],[-12,-49]],[[4609,1843],[-1,-69]],[[9854,9424],[-17,40],[62,91],[244,32],[88,142],[194,126],[76,-63],[149,-33],[6,-25],[73,-7],[33,77],[216,109],[60,-99],[59,9],[-95,-89],[38,-48],[74,41],[67,-105],[-110,-124],[18,-12],[-23,-44],[137,34],[46,-42],[45,7],[39,-30],[37,22],[110,-63],[2,-135],[-48,-3],[-154,-118],[17,-78],[102,-136],[-39,-21],[-80,42],[9,31],[-34,38],[-75,8],[-202,-62],[-57,-76],[-102,-64],[-30,-39],[-44,1],[-27,-52],[-76,-6]],[[10642,8700],[-15,153]],[[10627,8853],[68,33],[3,-6],[42,64],[59,-5],[150,60],[-52,30],[-4,47],[-37,34],[-2,48],[77,99],[-143,-1],[-34,-32],[-2,-1],[-148,-29],[-265,-113],[-97,22],[21,-38],[-19,-6],[-204,-223],[-118,-16],[-132,-16],[-159,38],[-116,-36],[-97,-15]],[[9418,8791],[-31,76],[14,92],[-22,93],[-141,-3],[-37,66],[28,73],[76,4],[22,-38],[148,61],[20,-36],[62,15],[37,3],[68,68],[-18,65],[210,94]],[[10627,8853],[-84,-53],[-22,16],[-53,-67],[-21,-20],[-59,-11],[-72,-50],[-35,-65],[-11,44],[-48,-92],[-64,-78],[-18,-89],[10,-23],[-38,-32],[-41,3],[-1,52],[-103,-129],[-72,-57],[50,-48],[5,-56]],[[9950,8098],[-87,-145],[-29,-77],[-25,6],[-9,-104],[-30,-70]],[[9490,7635],[-30,18],[-2,97]],[[9458,7750],[32,100],[-24,71],[110,-9],[-35,66]],[[9541,7978],[45,30],[98,80],[-87,80],[36,46],[-30,-9],[-55,74],[-115,-21],[5,130],[43,42],[-39,5],[-120,-15],[-17,33],[-40,-36],[0,-30],[-56,29],[-53,-85],[-43,1],[-44,-52],[-30,56],[-54,-11],[7,27],[-31,27],[-124,-13],[-77,32],[-123,-14],[-87,-102],[47,-52],[-56,-25],[-2,-32]],[[8539,8173],[-11,177],[17,28],[-62,98]],[[8531,8706],[190,72],[32,19],[118,-60],[91,4],[58,20],[94,-19],[28,27],[34,-22],[81,10],[75,46],[64,-32],[22,20]],[[10642,8700],[-67,-102],[24,-44],[-3,-105],[27,-15],[-67,-80],[10,-65],[-62,-68],[-81,-62]],[[10423,8159],[-73,70],[-66,-45],[-44,-3],[-7,23],[-100,5],[-67,-9],[16,-33],[-78,-115],[-54,46]],[[9541,7978],[-89,41],[-72,28],[-205,-24],[-54,44],[-151,-27],[-206,-12],[-83,25],[-102,42],[-54,-1],[14,79]],[[10414,8015],[33,-1],[3,-33],[-45,-123],[-100,-114],[13,-25],[-61,-141],[-38,-117],[-54,35],[-82,0],[-27,34],[-92,-27],[-50,63],[-49,-29]],[[10423,8159],[-39,-101],[30,-43]],[[9478,7408],[-35,-8],[-22,11],[-24,-39],[-48,20],[2,-114],[-54,38],[13,-63],[-31,-46],[19,-89],[-90,-42],[-48,129],[-53,7],[-62,139],[-2,64],[27,-4],[-3,64],[32,52],[67,28],[63,18],[10,36],[39,-19],[-4,45],[70,-60],[-1,101],[58,17],[34,64],[23,-7]],[[9713,2389],[-4,-33],[-45,38],[28,29],[24,-5],[-3,-29]],[[9716,2431],[-68,-1],[12,221],[25,12],[19,231],[57,80],[22,-20],[8,-112],[-12,-83],[-29,-29],[-19,17],[-21,-67],[26,-8],[20,-149],[-40,-92]],[[9578,1805],[30,-95],[-26,-70],[-38,13],[-22,101],[56,51]],[[9625,2072],[19,-59],[-36,-12],[17,71]],[[9670,2364],[10,-57],[-29,-32],[33,-39],[-15,-80],[-36,-21],[35,-19],[-33,-46],[-45,94],[-6,84],[26,-28],[23,160],[37,-16]],[[10094,207],[31,-127],[-15,-68],[-30,-12],[-61,157],[12,29],[63,21]],[[10041,297],[17,-30],[-42,-58],[-11,29],[36,59]],[[9684,1080],[14,-43],[-39,-6],[-3,40],[28,9]],[[4441,9667],[102,-19],[54,15],[52,-72],[44,50]],[[4693,9641],[97,-91],[57,-2],[37,29],[196,-125],[63,-20],[42,-71],[166,-107],[55,-42],[73,30],[54,-35],[95,-72],[100,11],[11,-95],[179,-15],[40,-51],[46,34],[-5,29],[86,-5],[97,-58]],[[6182,8985],[18,-27],[33,-43],[-11,-40],[34,-18],[4,-68],[78,-36],[62,-76],[-120,0],[-24,-34],[-56,-46],[98,-31],[7,-49],[-35,-20],[-12,-52],[163,-95],[60,-40],[-9,-25],[-17,-23],[-87,27],[-7,-33],[-70,28],[-82,-76],[-60,-69],[-94,-39],[-74,-55],[18,-176],[36,-20],[14,-81],[-8,-11]],[[6041,7757],[-40,-12],[3,-101],[-31,-72]],[[3970,8765],[19,38],[-200,6],[-120,-83],[-22,38],[103,62],[-43,61],[42,26],[-5,31],[-120,124],[-22,119]],[[3602,9187],[24,22],[72,34],[-21,69],[10,53],[2,72],[-62,65]],[[3627,9502],[-20,21],[17,18],[-46,97],[-3,10]],[[3575,9648],[-29,137],[5,57],[-9,81],[8,89],[-13,30],[42,80],[140,161],[-1,31]],[[3718,10314],[-2,10]],[[3716,10324],[151,-70],[-62,-63],[-34,-92],[41,-93],[42,18],[37,-58],[123,94],[69,-32],[42,-72],[121,-52],[-30,-40],[-35,-37],[84,-58],[24,17],[46,-24],[-4,-21],[110,-74]],[[2892,9680],[34,-137],[43,-41],[87,-57],[64,-73],[-48,-128],[15,-33],[41,-5],[59,-4],[-26,72],[39,30],[23,-22],[-2,71],[90,-63],[-1,-26],[51,17],[72,91],[46,-37],[-31,-177],[34,-34],[26,73],[94,-10]],[[1181,7823],[-68,115],[-20,91],[-87,109],[3,122],[-159,16],[-66,99],[16,95],[13,173],[-150,20],[-120,90],[40,166],[172,165],[79,148],[110,59],[67,-50],[31,-87],[59,-6],[117,55],[262,53],[3,-18],[18,90],[109,119],[37,120],[41,50],[101,48],[111,59],[133,238],[45,163],[160,53],[63,55]],[[2301,10233],[-28,-96],[158,-8],[59,-3],[30,-3]],[[2520,10123],[14,-31],[-32,-55],[54,3],[-6,-169],[97,17],[91,-76],[62,14],[42,10],[23,-10],[-5,-87],[53,-40],[-21,-19]],[[3627,9502],[-68,-50],[-66,59],[-48,-16],[-15,21],[49,64],[-11,44],[107,24]],[[2520,10123],[48,-13],[22,28],[42,8],[73,-55],[76,-10],[20,-41],[-29,-37],[53,-47],[62,109],[46,-30],[56,33],[88,-38],[60,36],[45,13],[-16,38],[32,71],[61,24],[22,-20],[69,22],[-31,40],[58,37],[15,45],[62,13],[7,66],[-38,31]],[[3423,10446],[4,32]],[[3427,10478],[-24,66]],[[3403,10544],[55,-2],[42,-66],[56,-28],[-17,-53],[33,-33],[124,-19],[22,-29]],[[7850,9109],[35,141],[163,68],[54,-10],[51,-96],[-48,-127],[11,-65],[49,-42],[-77,-79]],[[7820,8934],[30,175]],[[6182,8985],[-12,40],[72,4],[32,35],[72,-53],[133,-24],[27,-52],[-18,-76],[45,-20],[80,-18],[27,-37],[64,-3],[-6,-31],[30,-19],[153,43],[33,-19],[-2,-59],[36,-32],[17,-14],[67,42],[122,-25],[150,-80],[125,59],[47,-68],[118,16],[77,-27],[74,25],[73,-19],[30,68]],[[7691,8077],[-7,24],[-55,8],[-29,-59],[-59,12],[-13,-58],[-46,-14],[-49,-188],[-39,2],[-16,-37],[-118,26],[-62,-102],[-69,41],[9,41],[-66,19],[-30,76],[-60,-6],[-64,24],[-24,-100],[-53,-26],[-66,10],[-17,-19],[-95,-61],[-24,19],[-49,-18],[-39,69],[-120,-107],[-61,47],[-6,42],[-92,19],[-33,47],[-53,-48],[-145,-3]],[[4039,11252],[-34,21],[37,20],[-7,60],[-146,-60],[-108,153],[-158,-67],[-25,25],[-49,45],[-85,23],[-63,97]],[[3401,11569],[-106,116],[-75,24],[-18,74],[-95,112],[-62,-9],[-106,97],[-38,15],[-44,56],[-4,11],[-21,21],[14,41],[-46,43],[-199,19],[-51,29],[-111,22],[97,37],[8,60],[-39,44],[-92,-32],[-42,26]],[[2371,12375],[-137,65],[-26,-12],[-12,61],[33,73],[-148,17],[-106,68],[7,53],[-26,18],[-156,-21],[-61,36],[24,48],[-25,21],[25,82],[155,85],[53,100],[123,26],[102,-27],[64,45],[-55,21],[-13,34],[144,-46],[44,42],[36,-7],[176,83],[83,-75],[166,64],[50,-105],[56,-22],[52,-76],[199,-105],[38,6],[51,-65],[63,-12],[62,-60],[-30,-41],[34,-48],[49,-26],[71,6],[123,-63],[2,-60],[70,-21],[80,20],[32,-20],[56,52],[37,-21],[53,80],[98,18],[56,41],[116,15],[67,-24],[33,62],[64,7],[17,-43],[176,-50],[50,24],[43,-68],[72,-32],[14,-60],[-101,-330],[-115,-38],[7,-63],[-112,-4],[33,-84],[-93,-107],[-131,6],[-46,-33],[80,-156],[-76,-19],[29,-105],[183,-33],[-31,-76],[98,-151],[-70,-90],[-50,26],[-72,-50],[-8,-41],[-53,-20],[-86,138],[-142,-56]],[[3401,11569],[-9,-31],[-133,3],[-74,-72],[-105,-65],[-40,24],[-20,-19],[48,-60],[-34,-103]],[[3034,11246],[-127,-89],[-67,17]],[[2840,11174],[-53,31],[-102,12],[-23,33],[-81,-13],[-9,129],[-57,-19],[-26,20],[-25,-14],[-296,146],[11,51],[-36,58],[13,163],[-43,188],[-38,100],[22,87],[67,6],[52,88],[84,24],[71,111]],[[4039,11252],[53,-49],[-20,-59],[50,-28],[25,-59],[42,-38],[-30,-95],[56,-73],[-44,-31],[24,-41],[-18,-34],[51,-36]],[[4228,10709],[50,-75],[-48,-6],[-30,44],[-128,0],[-67,37],[-135,-48],[-54,-63],[-9,-76],[-40,-40],[43,-112],[-94,-46]],[[3403,10544],[-17,14],[-43,27],[9,92],[-59,26],[-41,63],[-40,-46],[-35,-2],[-94,242],[-20,41],[-122,57],[1,5],[23,19],[-9,50],[115,63],[-37,51]],[[3427,10478],[-50,3],[46,-35]],[[2301,10233],[-34,73],[131,145],[59,88],[135,78],[-8,25],[-70,1],[16,102],[39,40],[-15,19],[-43,105],[64,80],[97,53],[103,10],[80,50],[-15,72]],[[4228,10709],[75,76],[26,-10],[106,-157],[76,-62],[103,18],[93,-81],[58,-19],[-14,-70],[128,-60],[27,11],[171,-115],[-174,-110],[-18,-47],[-74,-48],[17,-63],[-66,-66],[30,-62],[-96,-158],[-3,-45]]],"transform":{"scale":[0.0025496229838903616,0.002289319097202582],"translate":[68.10055226476403,6.766373153037801]},"objects":{"states":{"type":"GeometryCollection","geometries":[{"arcs":[[[0,1,2,3,4]],[[3,4,0,1,2]]],"type":"MultiPolygon","properties":{"st_code":"15","st_nm":"Mizoram"}},{"arcs":[[[5,6,7,8,9,10,11,12,13]],[[7,8,9,10,11,12,13,5,6]]],"type":"MultiPolygon","properties":{"st_code":"33","st_nm":"Tamil Nadu"}},{"arcs":[[[14,15,16,17,18,19]],[[15,16,17,18,19,14]]],"type":"MultiPolygon","properties":{"st_code":"23","st_nm":"Madhya Pradesh"}},{"arcs":[[[20,21,22,23,24,25,26,27,-15,-20]],[[22,23,24,25,26,27,-15,-20,20,21]]],"type":"MultiPolygon","properties":{"st_code":"27","st_nm":"Maharashtra"}},{"arcs":[[[28,29,30,-21,-19,31,32,33]],[[29,30,-21,-19,31,32,33,28]]],"type":"MultiPolygon","properties":{"st_code":"22","st_nm":"Chhattisgarh"}},{"arcs":[[[34,35,36,37,38,39,-16,-28,40,-26]],[[41]],[[37,38,39,-16,-28,40,-26,34,35,36]],[[41]]],"type":"MultiPolygon","properties":{"st_code":"24","st_nm":"Gujarat"}},{"arcs":[[[42,43,-29,-34,44,45,46]],[[45,46,42,43,-29,-34,44]]],"type":"MultiPolygon","properties":{"st_code":"21","st_nm":"Odisha"}},{"arcs":[[[-44,47,-6,-14,48,49,-30]],[[-6,-14,48,49,-30,-44,47]]],"type":"MultiPolygon","properties":{"st_code":"37","st_nm":"Andhra Pradesh"}},{"arcs":[[[-23,50,-49,-13,51,52,53]],[[-49,-13,51,52,53,-23,50]]],"type":"MultiPolygon","properties":{"st_code":"29","st_nm":"Karnataka"}},{"arcs":[[[-54,54,-24]],[[-24,-54,54]]],"type":"MultiPolygon","properties":{"st_code":"30","st_nm":"Goa"}},{"arcs":[[[-52,-12,55]],[[-12,55,-52]]],"type":"MultiPolygon","properties":{"st_code":"32","st_nm":"Kerala"}},{"arcs":[[[-22,-31,-50,-51]],[[-22,-31,-50,-51]]],"type":"MultiPolygon","properties":{"st_code":"36","st_nm":"Telangana"}},{"arcs":[[[56]],[[57]],[[58,-46,59,60,61,62,63,64,65]],[[66]],[[67]],[[56]],[[57]],[[-46,59,60,61,62,63,64,65,58]],[[66]],[[67]]],"type":"MultiPolygon","properties":{"st_code":"19","st_nm":"West Bengal"}},{"arcs":[[[-41,-27]],[[-41,-27]]],"type":"MultiPolygon","properties":{"st_code":"26","st_nm":"Dadra and Nagar Haveli and Daman and Diu"}},{"arcs":[[[-8,70]],[[-10,71]],[[-8,70]],[[-10,71]]],"type":"MultiPolygon","properties":{"st_code":"34","st_nm":"Puducherry"}},{"type":null,"properties":{"st_code":"31","st_nm":"Lakshadweep"}},{"arcs":[[[72,73,74,75]],[[75,72,73,74]]],"type":"MultiPolygon","properties":{"st_code":"12","st_nm":"Arunachal Pradesh"}},{"arcs":[[[-75,76,77,-1,-5,78,79,80,81,-65,82]],[[-75,76,77,-1,-5,78,79,80,81,-65,82]]],"type":"MultiPolygon","properties":{"st_code":"18","st_nm":"Assam"}},{"arcs":[[[-77,-74,83,84]],[[84,-77,-74,83]]],"type":"MultiPolygon","properties":{"st_code":"13","st_nm":"Nagaland"}},{"arcs":[[[-81,85]],[[-81,85]]],"type":"MultiPolygon","properties":{"st_code":"17","st_nm":"Meghalaya"}},{"arcs":[[[86,-2,-78,-85,87]],[[86,-2,-78,-85,87]]],"type":"MultiPolygon","properties":{"st_code":"14","st_nm":"Manipur"}},{"arcs":[[[-4,88,-79]],[[-79,-4,88]]],"type":"MultiPolygon","properties":{"st_code":"16","st_nm":"Tripura"}},{"arcs":[[[89]],[[90]],[[91]],[[92]],[[93]],[[94]],[[95]],[[96]],[[93]],[[89]],[[90]],[[91]],[[92]],[[94]],[[95]],[[96]]],"type":"MultiPolygon","properties":{"st_code":"35","st_nm":"Andaman and Nicobar Islands"}},{"arcs":[[[97,98,99,100,-32,-18,101,102,103,104,105,106]],[[97,98,99,100,-32,-18,101,102,103,104,105,106]]],"type":"MultiPolygon","properties":{"st_code":"09","st_nm":"Uttar Pradesh"}},{"arcs":[[[107,-102,-17,-40,108,109,110]],[[-102,-17,-40,108,109,110,107]]],"type":"MultiPolygon","properties":{"st_code":"08","st_nm":"Rajasthan"}},{"arcs":[[[-104,111]],[[-104,111]]],"type":"MultiPolygon","properties":{"st_code":"07","st_nm":"Delhi"}},{"arcs":[[[-112,-103,-108,-111,112,113,114,115,-105]],[[-112,-103,-108,-111,112,113,114,115,-105]]],"type":"MultiPolygon","properties":{"st_code":"06","st_nm":"Haryana"}},{"arcs":[[[116,-63,117]],[[-63,117,116]]],"type":"MultiPolygon","properties":{"st_code":"11","st_nm":"Sikkim"}},{"arcs":[[[-100,118,-61,119]],[[-100,118,-61,119]]],"type":"MultiPolygon","properties":{"st_code":"10","st_nm":"Bihar"}},{"arcs":[[[-120,-60,-45,-33,-101]],[[-60,-45,-33,-101,-120]]],"type":"MultiPolygon","properties":{"st_code":"20","st_nm":"Jharkhand"}},{"arcs":[[[120,121,122]],[[122,120,121]]],"type":"MultiPolygon","properties":{"st_code":"38","st_nm":"Ladakh"}},{"arcs":[[[-122,123,124,125]],[[-122,123,124,125]]],"type":"MultiPolygon","properties":{"st_code":"01","st_nm":"Jammu and Kashmir"}},{"arcs":[[[-121,126,127,-106,-116,128,-124]],[[-106,-116,128,-124,-121,126,127]]],"type":"MultiPolygon","properties":{"st_code":"02","st_nm":"Himachal Pradesh"}},{"arcs":[[[-129,-115,129,-113,-110,130,-125]],[[-129,-115,129,-113,-110,130,-125]]],"type":"MultiPolygon","properties":{"st_code":"03","st_nm":"Punjab"}},{"arcs":[[[-128,131,-98,-107]],[[-98,-107,-128,131]]],"type":"MultiPolygon","properties":{"st_code":"05","st_nm":"Uttarakhand"}},{"arcs":[[[-130,-114]],[[-130,-114]]],"type":"MultiPolygon","properties":{"st_code":"04","st_nm":"Chandigarh"}}]}}}