{"type":"FeatureCollection","features":[{"type":"Feature","properties":{"name":"Indus","type":"major"},"geometry":{"type":"LineString","coordinates":[[72.781635,34.622538],[72.834759,34.371494],[72.847574,34.257961],[72.837963,34.198223],[72.801582,34.147658],[72.707015,34.085568]]}},{"type":"Feature","properties":{"name":"Krishna","type":"major"},"geometry":{"type":"LineString","coordinates":[[78.997173,16.230302],[79.156853,16.235004],[79.210907,16.300737],[79.212664,16.429049],[79.238451,16.514755],[79.31333,16.579376]]}},{"type":"Feature","properties":{"name":"Mahanadi","type":"tributary"},"geometry":{"type":"LineString","coordinates":[[83.857652,21.520134],[83.713165,21.673148],[83.63596,21.728235],[83.577979,21.7364],[83.528473,21.716737],[83.487545,21.669246],[83.425223,21.657903],[83.29965,21.695162]]}},{"type":"Feature","properties":{"name":"Sutlej","type":"tributary"},"geometry":{"type":"MultiLineString","coordinates":[[[81.294707,30.791661],[81.199313,30.852096]],[[76.764648,31.408626],[76.743564,31.333643],[76.714832,31.298452],[76.67132,31.277988],[76.595976,31.306358],[76.435056,31.422268]]]}},{"type":"Feature","properties":{"name":"Brahmaputra","type":"major"},"geometry":{"type":"MultiLineString","coordinates":[[[89.739257,24.330195],[89.713832,24.135142],[89.707941,23.962414],[89.744424,23.858673],[89.867518,23.720258],[89.993918,23.621039],[90.074378,23.573419],[90.266976,23.459395]],[[89.739257,24.330195],[89.80871,24.171807],[89.922915,24.082096],[90.115668,23.971147],[90.214111,23.869086],[90.218142,23.775939],[90.243929,23.73465],[90.291368,23.745269],[90.355446,23.708682],[90.476266,23.582979],[90.561635,23.537091]],[[95.396482,28.002916],[95.443766,27.883621],[95.369197,27.805745],[95.188536,27.729471],[95.116499,27.698284],[95.10358,27.683401],[95.108541,27.678466],[95.122081,27.675779],[95.137273,27.665573],[95.138514,27.644049],[95.083737,27.615059],[94.972322,27.586017],[94.877961,27.543229],[94.80055,27.486617],[94.725206,27.412927],[94.651722,27.322105],[94.630431,27.278025],[94.597461,27.234049],[94.567024,27.188883],[94.558859,27.130541],[94.517673,27.072301],[94.443362,27.014191],[94.335048,26.951895],[94.192732,26.885388],[94.119506,26.867223],[94.023026,26.867353],[93.751622,26.732038],[93.403271,26.738678],[93.245192,26.717543],[93.161167,26.670827],[93.008514,26.635635],[92.787029,26.612045],[92.655926,26.579567],[92.615102,26.538225],[92.54384,26.521431],[92.442141,26.529285],[92.312433,26.494921],[92.154716,26.418388],[92.071104,26.360924],[92.061699,26.322502],[91.965787,26.270464],[91.643843,26.163881],[91.546795,26.14781],[91.436259,26.150652],[91.250379,26.183208],[91.1524,26.204706],[91.052251,26.191528],[90.917169,26.150807],[90.759763,26.155045],[90.579929,26.204292],[90.356067,26.174346],[90.088176,26.065231],[89.8901,25.901262],[89.761839,25.68236],[89.698949,25.490124],[89.701429,25.324553],[89.680139,25.168412],[89.621228,25.026328],[89.612649,24.948374],[89.619574,24.894863],[89.729128,24.649297],[89.749902,24.41143],[89.739257,24.330195]]]}},{"type":"Feature","properties":{"name":"Chenab","type":"tributary"},"geometry":{"type":"MultiLineString","coordinates":[[[72.138781,31.183317],[72.139194,31.116344],[72.103124,31.047769],[71.994603,30.908966],[71.771464,30.614152],[71.678602,30.582888],[71.576748,30.508422],[71.434844,30.380265],[71.316298,30.206167],[71.22111,29.986025],[71.173,29.829161],[71.17207,29.735524],[71.130625,29.649457],[71.048666,29.570909],[71.017195,29.504969],[71.036109,29.451588],[71.035127,29.392005],[71.014146,29.326246],[70.98743,29.274803],[70.95508,29.237751],[70.911672,29.220568],[70.857412,29.223333],[70.797364,29.177909],[70.731528,29.084375],[70.683779,29.037401],[70.611639,29.023112]],[[77.435615,32.293094],[77.133928,32.45696],[76.939831,32.593256],[76.767439,32.671081],[76.552051,32.735883],[76.43733,32.841742],[76.423377,32.988633],[76.338111,33.122397],[76.181531,33.24301],[76.020197,33.323238],[75.853903,33.363106],[75.759438,33.370935],[75.736597,33.346802],[75.746002,33.305254],[75.78755,33.246343],[75.801503,33.201695],[75.78786,33.171309],[75.676652,33.152085],[75.46788,33.143946],[75.308303,33.173505],[75.197922,33.24071],[75.121958,33.246395],[75.080306,33.190507],[74.999226,33.170275],[74.878613,33.185675],[74.808695,33.122991],[74.789471,32.982328],[74.582766,32.7888],[74.188475,32.542458],[73.843689,32.371306],[73.548204,32.275369],[73.335193,32.146048],[73.139133,31.902084],[72.974337,31.758217],[72.853569,31.699254],[72.721794,31.67724],[72.582319,31.621662],[72.435042,31.532572],[72.333859,31.45715],[72.278772,31.395422],[72.246991,31.328476],[72.238413,31.256335],[72.210301,31.211015],[72.138574,31.183317]]]}},{"type":"Feature","properties":{"name":"Dihang","type":"tributary"},"geometry":{"type":"LineString","coordinates":[[94.356029,29.309529],[94.525734,29.438746],[94.641025,29.484299],[94.758537,29.48926],[94.843958,29.521196],[94.897391,29.580107],[94.91894,29.636176],[94.908657,29.689403],[94.958783,29.728082],[95.069267,29.752189],[95.125491,29.793246],[95.127713,29.851227],[95.17076,29.875954],[95.254579,29.867428],[95.294473,29.850194],[95.290339,29.824201],[95.312198,29.801179],[95.36005,29.781128],[95.395139,29.691082],[95.417566,29.53104],[95.385217,29.41035],[95.29809,29.329063],[95.19112,29.258369],[95.064306,29.19827],[94.944004,29.089801],[94.830315,28.93286],[94.808921,28.846069],[94.879925,28.829352],[94.961005,28.750597],[95.052266,28.609753],[95.096552,28.505961],[95.093865,28.439143],[95.067614,28.375917],[95.017901,28.316256],[95.002708,28.258224],[95.022242,28.201819],[95.087767,28.172234],[95.199388,28.169444],[95.290546,28.126759],[95.396482,28.002916]]}},{"type":"Feature","properties":{"name":"Ganges","type":"major"},"geometry":{"type":"MultiLineString","coordinates":[[[89.483148,22.27554],[89.425271,22.495526],[89.372147,22.58118],[89.299697,22.618852]],[[89.299697,22.618852],[89.260785,22.573558],[89.255462,22.445349],[89.286468,22.307579],[89.35375,22.160301],[89.378555,22.058085],[89.3522,21.972303],[89.350547,21.885641],[89.335819,21.788386],[89.35375,21.721103]],[[88.439749,22.986478],[88.385024,22.867958],[88.34668,22.735253],[88.343786,22.629265],[88.290043,22.549399],[88.185346,22.495604],[88.117547,22.410234],[88.087058,22.217714]],[[88.439749,22.986478],[88.518453,22.975342],[88.597931,22.974774],[88.682164,22.953793],[88.756268,22.914984],[88.82045,22.858373],[88.842619,22.802846],[88.822878,22.748328],[88.845254,22.700243],[88.909643,22.65854],[88.971448,22.510926],[89.049945,22.274636],[89.055836,22.186243],[89.051443,22.093174]],[[90.074378,23.573419],[90.096031,23.340307],[90.127243,23.25194],[90.180883,23.205922],[90.228426,23.178482],[90.243619,23.138252],[90.265219,23.115592],[90.298757,23.088074],[90.302116,23.05451],[90.315242,23.015598],[90.361648,22.961054],[90.361338,22.875865],[90.394307,22.774838],[90.435028,22.751919]],[[89.109373,23.991921],[89.218565,23.80847],[89.301764,23.732505],[89.381242,23.6938],[89.447181,23.640185],[89.499581,23.571662],[89.520045,23.524766],[89.508676,23.499444],[89.526866,23.483373],[89.574719,23.476552],[89.598335,23.443091],[89.597818,23.383043],[89.615026,23.336974],[89.632493,23.301084],[89.637557,23.252483],[89.659727,23.222924],[89.709491,23.192331],[89.718638,23.133394],[89.765353,23.020068],[89.926274,22.840182],[90.007561,22.685231],[90.013555,22.563481],[89.985133,22.466381]],[[89.109373,23.991921],[89.199755,23.932648],[89.280887,23.930788],[89.37995,23.901125],[89.497049,23.843558],[89.604019,23.823094],[89.749282,23.848054]],[[88.396961,24.389261],[88.510133,24.261388],[88.533749,24.208471],[88.526928,24.165554],[88.554213,24.128863],[88.615708,24.098478],[88.642993,24.059359],[88.636172,24.011584],[88.690225,23.967762],[88.805257,23.92792],[88.864426,23.855909],[88.867837,23.751729],[88.837193,23.665791],[88.772391,23.598095],[88.763709,23.530657],[88.811045,23.463478],[88.852799,23.440714],[88.884683,23.423454],[88.905509,23.389942],[88.925973,23.363484],[88.988915,23.332788],[89.001731,23.263361],[89.027517,23.186079],[89.088754,23.112595],[89.112938,23.04048],[89.099812,22.969684],[89.113455,22.892556],[89.153866,22.809125],[89.208436,22.748741],[89.268433,22.707503],[89.275512,22.702671],[89.270861,22.678952],[89.299697,22.618852]],[[88.396961,24.389261],[88.498557,24.346628],[88.642321,24.325957],[88.723505,24.274901],[88.742212,24.193407],[88.769755,24.144289],[88.806239,24.127494],[88.858277,24.131086],[88.925973,24.155063],[89.009637,24.108684],[89.109373,23.991921]],[[87.919833,24.825048],[87.940193,24.666014],[88.018845,24.542533],[88.174598,24.388796],[88.238056,24.234258],[88.209014,24.07897],[88.205397,23.944689],[88.226998,23.831414],[88.215422,23.739637],[88.183383,23.700104],[88.213717,23.636749],[88.271853,23.587346],[88.303789,23.542672],[88.344613,23.530321],[88.360736,23.460558],[88.352158,23.333356],[88.375206,23.255428],[88.429983,23.226774],[88.46688,23.18613],[88.486051,23.133524],[88.458715,23.027484],[88.439749,22.986478]],[[87.919833,24.825048],[87.946291,24.753166],[87.999363,24.661441],[88.079048,24.549923],[88.145452,24.485793],[88.225034,24.460626],[88.287149,24.479746],[88.337533,24.453857],[88.396961,24.389261]],[[79.840739,30.888477],[79.820276,30.836826],[79.828802,30.78701],[79.859498,30.72182],[79.864614,30.679006],[79.833918,30.648285],[79.744931,30.543201],[79.667107,30.522117],[79.570782,30.550022],[79.470219,30.515993],[79.313123,30.372074],[79.232094,30.30089],[79.158921,30.284767],[79.066523,30.300063],[78.939296,30.291846],[78.777238,30.260065],[78.668718,30.201361],[78.613838,30.115733],[78.519786,30.089817],[78.386565,30.12364],[78.281041,30.092892],[78.203113,29.997601],[78.17035,29.889132],[78.182856,29.767537],[78.139448,29.673073],[78.040126,29.605687],[78.022194,29.491844],[78.085549,29.331543],[78.106013,29.180881],[78.083586,29.03983],[78.098313,28.882113],[78.176035,28.620501],[78.242491,28.521722],[78.271016,28.443329],[78.283728,28.352378],[78.336852,28.253418],[78.430386,28.146422],[78.60314,28.026429],[78.855218,27.893492],[79.02482,27.824762],[79.111947,27.820214],[79.167499,27.786289],[79.19158,27.722985],[79.255142,27.680171],[79.358392,27.657795],[79.44619,27.620356],[79.51864,27.567775],[79.590574,27.466489],[79.661991,27.316498],[79.732787,27.217435],[79.838052,27.145243],[79.922491,27.12558],[79.998352,27.024862],[80.093851,26.836553],[80.237718,26.648038],[80.429851,26.459264],[80.543901,26.317309],[80.579764,26.222172],[80.651749,26.138353],[80.75996,26.065954],[80.868687,26.037532],[80.978138,26.05319],[81.122832,25.988776],[81.302769,25.844366],[81.394598,25.745509],[81.398215,25.692256],[81.45754,25.645851],[81.572572,25.606344],[81.648743,25.563608],[81.686053,25.517668],[81.755558,25.498935],[81.857154,25.50741],[81.906815,25.48692],[81.903249,25.412764],[82.042052,25.312357],[82.11998,25.284659],[82.183129,25.296234],[82.215168,25.272463],[82.217028,25.258924],[82.225865,25.243498],[82.239094,25.241302],[82.254494,25.245694],[82.274286,25.261766],[82.299866,25.260474],[82.318366,25.230192],[82.344979,25.226523],[82.379809,25.249364],[82.43562,25.235049],[82.512618,25.183579],[82.55215,25.183967],[82.563467,25.202777],[82.584965,25.218409],[82.619588,25.219701],[82.785934,25.144021],[82.878797,25.141618],[82.965096,25.187662],[83.016618,25.238796],[83.033258,25.294968],[83.07403,25.330134],[83.138936,25.344241],[83.159297,25.376539],[83.135215,25.426975],[83.138729,25.47152],[83.170045,25.510174],[83.241565,25.518856],[83.353497,25.497591],[83.439589,25.465707],[83.489251,25.444158],[83.513487,25.461779],[83.513487,25.497074],[83.518138,25.533842],[83.59958,25.584072],[83.669653,25.607016],[83.712751,25.590325],[83.752232,25.54162],[83.803392,25.518934],[83.86623,25.522318],[83.959093,25.577044],[84.081979,25.683187],[84.171018,25.7221],[84.226208,25.693833],[84.283517,25.701041],[84.342894,25.743752],[84.42847,25.747163],[84.539987,25.711247],[84.634142,25.708328],[84.710933,25.738326],[84.826688,25.747008],[84.981408,25.734399],[85.11897,25.682567],[85.23917,25.591565],[85.338492,25.543971],[85.412441,25.534798],[85.456107,25.53777],[85.500807,25.544901],[85.555119,25.543635],[85.617751,25.493741],[85.696609,25.473794],[85.78601,25.494568],[85.880061,25.462219],[85.978969,25.376694],[86.097825,25.323623],[86.236731,25.303004],[86.370728,25.340805],[86.499816,25.437104],[86.571026,25.447672],[86.584359,25.372534],[86.61676,25.315354],[86.668126,25.27608],[86.74285,25.279827],[86.840932,25.32662],[86.964956,25.320083],[87.115127,25.260241],[87.218584,25.266985],[87.275324,25.340366],[87.350462,25.382715],[87.443893,25.394006],[87.517635,25.366436],[87.571689,25.299981],[87.643726,25.25696],[87.733746,25.2374],[87.779325,25.193191],[87.780461,25.124358],[87.824335,25.064362],[87.911048,25.013202],[87.942415,24.955945],[87.918541,24.892641],[87.919833,24.825048]]]}},{"type":"Feature","properties":{"name":"Godavari","type":"major"},"geometry":{"type":"MultiLineString","coordinates":[[[81.738815,16.942248],[81.832556,16.669164],[81.855655,16.552943],[81.839429,16.502533],[81.79969,16.465326],[81.736334,16.441296],[81.706414,16.400033],[81.711736,16.334455]],[[81.738815,16.942248],[81.88816,16.776547],[82.034094,16.713037],[82.338675,16.706526]],[[73.652487,20.012784],[73.888648,19.990201],[73.98983,19.998883],[74.034686,20.031336],[74.083571,20.036348],[74.162946,20.002862],[74.422465,19.917673],[74.588967,19.834862],[74.748957,19.72598],[74.916906,19.652134],[75.092915,19.613325],[75.197405,19.57865],[75.246911,19.532865],[75.472789,19.425326],[75.591231,19.380135],[75.677531,19.361506],[75.76905,19.361402],[75.845531,19.37582],[75.905062,19.362591],[75.916586,19.325901],[75.940512,19.314119],[75.986711,19.332593],[76.011309,19.326288],[76.027432,19.310165],[76.091769,19.290968],[76.318991,19.257171],[76.347206,19.241255],[76.353304,19.202291],[76.337284,19.140279],[76.346637,19.123898],[76.367773,19.119867],[76.395885,19.111134],[76.426788,19.076872],[76.47309,19.072738],[76.534585,19.098835],[76.581713,19.086303],[76.614476,19.035221],[76.657264,19.001631],[76.710181,18.985508],[76.74775,18.996412],[76.769971,19.034265],[76.855599,19.070413],[77.004737,19.104881],[77.092897,19.108317],[77.120079,19.080748],[77.195526,19.089274],[77.319136,19.133923],[77.404816,19.120229],[77.452668,19.048243],[77.578914,18.965794],[77.783656,18.872931],[77.968347,18.870399],[78.132988,18.958171],[78.235359,18.984113],[78.27546,18.948249],[78.319385,18.945666],[78.367238,18.976387],[78.428836,18.979824],[78.50418,18.955898],[78.575494,18.966491],[78.642776,19.011501],[78.701171,19.027444],[78.750883,19.01424],[78.834806,19.0261],[78.952938,19.062997],[79.049625,19.033412],[79.124762,18.937372],[79.201037,18.870916],[79.317154,18.815622],[79.401025,18.843243],[79.496264,18.809214],[79.630933,18.722733],[79.727155,18.690074],[79.785032,18.711261],[79.821619,18.761853],[79.874484,18.801953],[79.925127,18.807405],[80.029048,18.743611],[80.1416,18.70152],[80.243609,18.709478],[80.318643,18.686147],[80.366495,18.631576],[80.39006,18.572613],[80.389336,18.509258],[80.40825,18.463034],[80.447007,18.43394],[80.472742,18.387612],[80.485455,18.32405],[80.540748,18.260565],[80.687509,18.165532],[80.839903,17.995543],[80.892148,17.864595],[80.895042,17.716051],[80.986044,17.621715],[81.165155,17.581614],[81.266802,17.543064],[81.29109,17.506064],[81.352068,17.482344],[81.449737,17.471802],[81.527975,17.447824],[81.586576,17.410359],[81.646624,17.279282],[81.738815,16.942248]]]}},{"type":"Feature","properties":{"name":"Indus","type":"major"},"geometry":{"type":"MultiLineString","coordinates":[[[68,24.00668036075764],[68.016603,23.990681],[68.02451,23.933682],[68.042441,23.891669],[68.037015,23.84826]],[[79.734596,32.443937],[79.429808,32.744978]],[[79.43725,32.738131],[79.340822,32.880681],[79.220312,32.996462],[79.043682,33.132991],[78.90674,33.189034],[78.809484,33.164539],[78.639831,33.207792],[78.245488,33.397962],[78.183373,33.445297],[78.151644,33.493356],[78.150403,33.542139],[78.076919,33.620015],[77.931295,33.726934],[77.792131,33.857365],[77.659529,34.011206],[77.529769,34.106136],[77.339393,34.160137],[76.96691,34.287778],[76.782115,34.386299],[76.660778,34.498282],[76.529314,34.582644],[76.387617,34.639385],[76.285091,34.708321],[76.221529,34.789376],[76.196207,34.86118],[76.20892,34.923657],[76.141895,35.007579],[75.995031,35.112896],[75.902013,35.209531],[75.862843,35.297432],[75.791477,35.334588],[75.687815,35.320945],[75.567719,35.357093],[75.431086,35.442979],[75.352848,35.510856],[75.333108,35.560698],[75.263861,35.589663],[75.145212,35.597724],[75.000725,35.632347],[74.830399,35.693532],[74.740069,35.753477],[74.729734,35.812181],[74.701053,35.836366],[74.654028,35.826031],[74.631032,35.747534],[74.632065,35.600825],[74.575324,35.50003],[74.460809,35.445124],[74.34247,35.414583],[74.220307,35.408407],[74.058457,35.435874],[73.856919,35.496955],[73.6452,35.53101],[73.423302,35.538038],[73.301604,35.471169],[73.28021,35.330402],[73.1751,35.20426],[72.986377,35.092742],[72.885195,35.004479],[72.871656,34.939366],[72.894807,34.886346],[72.954648,34.845367],[72.944571,34.808883],[72.864473,34.776844],[72.813726,34.726253],[72.781635,34.622538]],[[72.706911,34.085543],[72.651617,34.031747],[72.591776,34.015495],[72.508991,34.018802],[72.410754,33.999837],[72.297169,33.958574],[72.238826,33.894934],[72.235726,33.808996],[72.197485,33.77197],[72.124104,33.783933],[72.071033,33.778972],[72.03827,33.757087],[71.985922,33.665465],[71.913885,33.504079],[71.839212,33.406333],[71.761801,33.372279],[71.721958,33.273783],[71.719685,33.110847],[71.650955,32.993878],[71.515666,32.922797],[71.424716,32.837686],[71.354539,32.688884],[71.3441,32.483547],[71.272994,32.311103],[71.070215,31.999081],[70.861081,31.569495],[70.800774,31.299692],[70.82899,30.919844],[70.769769,30.810755],[70.774523,30.716291],[70.823512,30.600096],[70.829506,30.485478],[70.792506,30.37241],[70.791524,30.211903],[70.826561,30.003957],[70.791886,29.825157],[70.687603,29.675502],[70.656649,29.550393],[70.699127,29.449882],[70.702331,29.35348],[70.666261,29.261237],[70.651223,29.176023],[70.657114,29.097862],[70.611639,29.023112],[70.51459,28.951799],[70.442967,28.915755],[70.396768,28.915005],[70.287369,28.83545],[70.114873,28.677113],[69.962014,28.575724],[69.828792,28.531282],[69.714949,28.444388],[69.620588,28.314965],[69.534908,28.24577],[69.458014,28.236881],[69.409438,28.212387],[69.389181,28.172389],[69.356315,28.156731],[69.310839,28.165413],[69.248931,28.141358],[69.17059,28.084539],[69.107286,28.057771],[69.05902,28.061052],[69.025896,28.040046],[69.007912,27.994777],[68.979852,27.975166],[68.941715,27.981264],[68.929467,27.955297],[68.94311,27.897316],[68.927607,27.853132],[68.883062,27.822746],[68.884457,27.792128],[68.931896,27.761277],[68.94988,27.736964],[68.938407,27.719187],[68.826476,27.677794],[68.762449,27.697793],[68.705192,27.759495],[68.66907,27.770502],[68.654084,27.730892],[68.573107,27.687742],[68.426242,27.641052],[68.337359,27.602502],[68.30656,27.572116],[68.300048,27.511189],[68.317722,27.419825],[68.297413,27.371405],[68.239019,27.365875],[68.194008,27.34213],[68.162279,27.300143],[68.160264,27.263091],[68.187859,27.230948],[68.174785,27.207616],[68.121041,27.193121],[68.098924,27.162942],[68.108536,27.117053],[68.063215,27.062018],[68,27.02147288911522]],[[68,26.232525447899157],[68.067608,26.191993],[68.116804,26.140265],[68.129723,26.088124],[68.201553,25.99893],[68.332295,25.87271],[68.378803,25.794808],[68.340873,25.765249],[68.348108,25.728171],[68.400301,25.683549],[68.39844,25.620659],[68.342423,25.539423],[68.323096,25.443925],[68.340459,25.334165],[68.337152,25.261559],[68.313174,25.226057],[68.318549,25.191693],[68.353172,25.158413],[68.35157,25.138621],[68.313639,25.132265],[68.286199,25.089115],[68.269353,25.009223],[68.245065,24.978527],[68.213542,24.997053],[68.183466,24.973256],[68.154941,24.907162],[68.116494,24.872642],[68.068228,24.8698],[68.024613,24.760349],[68,24.623538822932996]]]}},{"type":"Feature","properties":{"name":"Krishna","type":"major"},"geometry":{"type":"MultiLineString","coordinates":[[[79.31333,16.579376],[79.657185,16.69017],[79.818415,16.702934],[79.911536,16.654617],[79.993081,16.677871],[80.062948,16.772672],[80.121497,16.768176],[80.16873,16.664332],[80.261902,16.607359],[80.400912,16.59723],[80.523592,16.553202],[80.629838,16.475325],[80.716552,16.393212],[80.783834,16.306964],[80.833754,16.201285],[80.882743,16.0137],[80.892458,15.970963],[80.891631,15.865957],[80.877575,15.819655],[80.86476,15.782215]],[[73.796457,17.991822],[73.897691,17.930663],[73.962028,17.854311],[74.053702,17.68644],[74.117988,17.632748],[74.127393,17.578746],[74.103312,17.506529],[74.120985,17.423226],[74.180206,17.328839],[74.204288,17.255278],[74.193125,17.202568],[74.232193,17.157299],[74.321593,17.119446],[74.369497,17.083299],[74.376008,17.04883],[74.395697,17.033793],[74.428563,17.038082],[74.456727,17.015758],[74.491919,16.942248],[74.53667,16.857731],[74.587313,16.808225],[74.658833,16.765592],[74.672269,16.733139],[74.627518,16.71097],[74.623435,16.667174],[74.659919,16.601778],[74.75428,16.595654],[74.906519,16.648777],[75.013334,16.63423],[75.074829,16.551962],[75.125988,16.540076],[75.167019,16.59847],[75.230685,16.621156],[75.316984,16.608082],[75.38313,16.579815],[75.428916,16.536304],[75.448811,16.492224],[75.442713,16.447549],[75.489946,16.43047],[75.590508,16.440961],[75.676963,16.421944],[75.74931,16.373368],[75.837986,16.338228],[75.942889,16.316575],[76.016477,16.278748],[76.058541,16.224772],[76.12417,16.187591],[76.213261,16.167231],[76.404877,16.227356],[76.699019,16.367916],[76.882057,16.470003],[76.953991,16.533668],[77.05724,16.527932],[77.258985,16.415355],[77.615707,16.348822],[77.844996,16.232239],[78.065654,16.043517],[78.193088,15.955977],[78.227298,15.96962],[78.244351,15.991944],[78.244351,16.023002],[78.283263,16.049718],[78.361088,16.072198],[78.497772,16.07119],[78.693419,16.046773],[78.805144,16.063619],[78.832946,16.121704],[78.884467,16.170641],[78.997173,16.230302]]]}},{"type":"Feature","properties":{"name":"Mahanadi","type":"tributary"},"geometry":{"type":"MultiLineString","coordinates":[[[80.625291,20.599027],[80.630407,20.714808],[80.664875,20.764624],[80.76306,20.798266],[80.888789,20.970271],[81.00594,21.046235],[81.156421,21.083468],[81.271091,21.219997],[81.34995,21.455797],[81.427723,21.58814],[81.542651,21.631548],[81.641146,21.589897],[81.680679,21.621575],[81.694011,21.71268],[81.745274,21.764072],[81.834468,21.775751],[81.920354,21.808798],[82.002933,21.863162],[82.114347,21.847556],[82.254597,21.761876],[82.376192,21.72777],[82.479028,21.745133],[82.722786,21.739138],[83.29965,21.695162]],[[83.856618,21.520444],[83.949222,21.453859],[83.942608,21.337432],[83.829953,21.054736],[83.83202,20.96177],[83.865713,20.907045],[83.931756,20.859606],[84.046374,20.846118],[84.209775,20.866582],[84.309717,20.846945],[84.346304,20.787233],[84.444179,20.729536],[84.603343,20.673881],[84.707522,20.61484],[84.756615,20.552441],[84.92198,20.480094],[85.344383,20.356691],[85.665448,20.442732],[85.832208,20.445212],[85.951581,20.392864],[86.048164,20.310802],[86.1587,20.143138],[86.17658,20.093787],[86.245206,20.05304]]]}},{"type":"Feature","properties":{"name":"Narmada","type":"major"},"geometry":{"type":"LineString","coordinates":[[81.574277,22.753754],[81.280135,22.87726],[81.096477,22.955705],[81.026713,22.968986],[81.009557,22.943251],[80.97297,22.936068],[80.917056,22.947333],[80.877265,22.978598],[80.853701,23.029783],[80.8321,23.040351],[80.81236,23.010224],[80.731693,22.984644],[80.589996,22.96356],[80.508554,22.925319],[80.487367,22.870026],[80.483956,22.787627],[80.498322,22.678151],[80.486488,22.611075],[80.448351,22.586374],[80.410679,22.583531],[80.373368,22.602445],[80.333216,22.657842],[80.290324,22.749645],[80.216582,22.790392],[80.059847,22.774838],[79.962592,22.851655],[79.932723,22.933898],[79.937788,23.047172],[79.83428,23.112078],[79.622096,23.128563],[79.418595,23.121612],[79.223774,23.091175],[79.116236,23.060789],[79.095875,23.030481],[78.99707,23.023608],[78.819613,23.040248],[78.671715,23.037871],[78.553273,23.016477],[78.442013,22.970226],[78.337937,22.899145],[78.257167,22.868346],[78.199806,22.877777],[78.158413,22.85907],[78.133092,22.812174],[78.074904,22.793648],[77.98385,22.803415],[77.91879,22.824628],[77.879722,22.857236],[77.790219,22.825325],[77.650279,22.728949],[77.456751,22.639084],[77.086075,22.514156],[76.884021,22.457699],[76.803199,22.406643],[76.77643,22.342202],[76.713592,22.289157],[76.614786,22.247583],[76.529727,22.254094],[76.45831,22.308664],[76.305555,22.298923],[76.071357,22.224897],[75.607509,22.14609],[74.567366,22.020723],[74.466442,22.034779],[74.38686,22.012068],[74.29498,21.957239],[74.202014,21.93246],[74.108066,21.937731],[73.984818,21.914218],[73.832372,21.861922],[73.702923,21.87174],[73.596469,21.943751],[73.518335,21.981449],[73.468519,21.98486],[73.416894,21.961373],[73.36346,21.911014],[73.310544,21.896803],[73.258144,21.918714],[73.235251,21.908379],[73.241866,21.86572],[73.217888,21.844274],[73.163421,21.844016],[73.134999,21.821356],[73.137324,21.783477],[73.112468,21.750456]]}},{"type":"Feature","properties":{"name":"Sutlej","type":"tributary"},"geometry":{"type":"MultiLineString","coordinates":[[[81.375736,30.758149],[81.293777,30.792281]],[[81.199313,30.852096],[80.873958,31.05397],[80.731228,31.121253],[80.628392,31.121253],[80.53403,31.066373],[80.474499,31.05335],[80.418172,31.063892],[80.295595,31.124612],[80.106563,31.235406],[79.980421,31.335917],[79.917065,31.426196],[79.795471,31.480869],[79.61574,31.500041],[79.455595,31.550374],[79.315138,31.63192],[79.170806,31.669773],[79.022701,31.663882],[78.922139,31.69698],[78.869119,31.769121],[78.811345,31.815733],[78.74861,31.836894],[78.651665,31.804467],[78.52051,31.718426],[78.45178,31.656673],[78.445476,31.619156],[78.404806,31.600423],[78.329669,31.600423],[78.284452,31.580605],[78.269052,31.540969],[78.153401,31.531822],[77.937393,31.553216],[77.756526,31.511514],[77.610798,31.406817],[77.495456,31.355502],[77.410603,31.357569],[77.352984,31.337984],[77.322702,31.29672],[77.270457,31.267239],[77.196146,31.249566],[77.0899,31.272743],[76.951613,31.33677],[76.882884,31.38023],[76.883711,31.403122],[76.854255,31.41307],[76.764648,31.408626]],[[76.435056,31.422268],[76.383793,31.407386],[76.369582,31.38656],[76.375266,31.354882],[76.534998,31.143681],[76.566934,31.05335],[76.52611,31.003017],[76.360022,30.989013],[76.06867,31.011363],[75.791116,31.013198],[75.527463,30.994491],[75.304996,31.034695],[75.123818,31.133785],[74.983982,31.177115],[74.88559,31.164765],[74.727511,31.092263],[74.509747,30.959661],[74.380401,30.893412],[74.33937,30.893567],[74.215605,30.768975],[74.009002,30.519688],[73.805656,30.363367],[73.505415,30.268308],[73.381805,30.229266],[73.325375,30.194436],[73.294989,30.150744],[73.268117,30.139349],[73.24476,30.160227],[73.157943,30.12364],[73.007771,30.029589],[72.858323,29.960084],[72.709805,29.915022],[72.631257,29.875851],[72.622679,29.842546],[72.554362,29.829032],[72.426102,29.835285],[72.308589,29.793711],[72.201619,29.70426],[72.15263,29.639509],[72.161518,29.599486],[72.120539,29.557473],[72.029692,29.513444],[71.9051,29.486986],[71.746866,29.478098],[71.650128,29.452156],[71.614988,29.409161],[71.56481,29.382393],[71.499595,29.371851],[71.418101,29.382083],[71.320433,29.413089],[71.209122,29.413089],[71.014146,29.326246]]]}},{"type":"Feature","properties":{"name":"Yamuna","type":"major"},"geometry":{"type":"LineString","coordinates":[[78.339952,30.915168],[78.072372,30.737659],[77.986692,30.567695],[77.942199,30.517905],[77.910263,30.531573],[77.814713,30.511006],[77.655446,30.456203],[77.574418,30.391169],[77.570077,30.278281],[77.527754,30.202653],[77.442746,30.127257],[77.300843,30.026901],[77.187,29.871407],[77.101113,29.660851],[77.073673,29.537629],[77.104782,29.501765],[77.106643,29.469106],[77.094344,29.450399],[77.092742,29.427481],[77.120544,29.401281],[77.144625,29.340328],[77.137494,29.191061],[77.155632,29.065926],[77.19904,28.964951],[77.221261,28.858032],[77.222191,28.745171],[77.248856,28.64652],[77.327404,28.519758],[77.454632,28.424932],[77.489358,28.373824],[77.474062,28.334782],[77.484449,28.281685],[77.520519,28.214609],[77.520881,28.147481],[77.485638,28.080405],[77.49587,27.98452],[77.55168,27.859798],[77.607181,27.797425],[77.662268,27.797322],[77.681233,27.749211],[77.663973,27.653093],[77.667952,27.60077],[77.693067,27.592244],[77.700405,27.569713],[77.689863,27.533152],[77.711464,27.466903],[77.765311,27.370991],[77.821431,27.305104],[77.879929,27.26924],[77.92003,27.262936],[77.941734,27.28619],[77.966435,27.289833],[77.994237,27.273891],[78.01222,27.244539],[78.020489,27.201854],[78.068444,27.183147],[78.156088,27.188418],[78.203423,27.164931],[78.210348,27.112686],[78.249105,27.096072],[78.292048,27.106046],[78.308637,27.095427],[78.312926,27.079019],[78.326982,27.061863],[78.383102,27.057935],[78.436897,27.024346],[78.488264,26.961068],[78.507591,26.953316],[78.521802,26.960422],[78.543764,26.957967],[78.60898,26.910192],[78.663395,26.894483],[78.707113,26.910838],[78.778995,26.879807],[78.878938,26.801362],[78.947874,26.762139],[78.985804,26.762139],[79.024407,26.721186],[79.063784,26.639253],[79.135769,26.579515],[79.240363,26.541972],[79.262532,26.511302],[79.261963,26.48536],[79.251473,26.471614],[79.265839,26.445931],[79.280205,26.432857],[79.311004,26.427509],[79.401851,26.436475],[79.47301,26.416166],[79.493784,26.371853],[79.518278,26.359167],[79.5359,26.354748],[79.544737,26.334904],[79.537812,26.306121],[79.592072,26.243928],[79.712272,26.155768],[79.804256,26.107554],[79.868025,26.099363],[79.91226,26.112102],[79.931587,26.125098],[79.947348,26.125098],[79.956288,26.094997],[79.988999,26.072001],[80.049874,26.071122],[80.080311,26.052725],[80.080415,26.01681],[80.113126,25.979241],[80.211259,25.920485],[80.44215,25.889324],[80.524315,25.869997],[80.534754,25.852143],[80.522765,25.83509],[80.488555,25.818786],[80.524264,25.781424],[80.629994,25.72303],[80.7165,25.702411],[80.783783,25.719516],[80.843934,25.717449],[80.896954,25.696158],[80.930389,25.667684],[80.944341,25.632079],[80.969249,25.617145],[81.005216,25.622829],[81.021753,25.604897],[81.018859,25.563298],[81.059063,25.530561],[81.142262,25.50666],[81.181226,25.465629],[81.175852,25.407442],[81.221534,25.367237],[81.318375,25.344913],[81.37739,25.318739],[81.398577,25.288741],[81.472061,25.294839],[81.597738,25.337033],[81.69427,25.351089],[81.761656,25.337007],[81.803617,25.351579],[81.82005,25.394781],[81.847025,25.415968],[81.903146,25.414625]]}}]}